name,description,animal_ids,category_ids,address,longitude,latitude,tel_number,opening_hours,web_site,prefecture_id,id,suggest
磯沼ミルクファーム（磯沼牧場）,乳製品を販売している牧場です。牛の乳搾り体験や、オプションで搾った牛乳でバター作り体験ができるようです。,11,3,東京都八王子市小比企町１６２５,139.3218253,35.6415453,042-637-6086,月曜日: 9時00分～17時00分. 火曜日: 9時00分～17時00分. 水曜日: 9時00分～17時00分. 木曜日: 9時00分～17時00分. 金曜日: 9時00分～17時00分. 土曜日: 9時00分～17時00分. 日曜日: 9時00分～17時00分,https://www.isonuma-milk.com/,13,1,
増田牧場,アイスクリームを販売している牧場です。牛舎があり、牛の見学をさせてもらえるようです。,11,3,東京都清瀬市中清戸４丁目,139.5301673,35.781483,042-492-8223,,https://www.dairy.co.jp/edf/list/kanto/masuda.html,13,2,recommend
夕やけ小やけふれあいの里 ふれあい牧場,ウサギやモルモットとふれあえたり、ポニーの乗馬体験ができます。,"3,7,12",1,東京都八王子市上恩方町２０３３,139.2156943,35.6696396,,月曜日: 9時00分～16時30分. 火曜日: 9時00分～16時30分. 水曜日: 9時00分～16時30分. 木曜日: 9時00分～16時30分. 金曜日: 9時00分～16時30分. 土曜日: 9時00分～16時30分. 日曜日: 9時00分～16時30分,https://www.yuyakekoyake.jp/experience/animal.html,13,3,
しながわ水族館,ドクターフィッシュとふれあえたり、カワウソやアザラシの餌やり体験ができます。,"9,24,25",2,東京都品川区勝島３丁目２−１,139.7375007,35.588476,03-3762-3433,月曜日: 10時00分～17時00分. 火曜日: 定休日. 水曜日: 10時00分～17時00分. 木曜日: 10時00分～17時00分. 金曜日: 10時00分～17時00分. 土曜日: 10時00分～17時00分. 日曜日: 10時00分～17時00分,http://www.aquarium.gr.jp/,13,4,
マクセル アクアパーク品川,カピバラにご飯をあげたり、イルカにタッチできるイベントがあります。,"8,21",2,東京都港区高輪４丁目１０−３０ 品川プリンスホテル内,139.7352393,35.62828390000001,03-5421-1111,月曜日: 10時00分～19時30分. 火曜日: 10時00分～19時30分. 水曜日: 10時00分～19時30分. 木曜日: 10時00分～19時30分. 金曜日: 10時00分～19時30分. 土曜日: 10時00分～19時30分. 日曜日: 10時00分～19時30分,http://www.aqua-park.jp/aqua/,13,5,recommend
サンシャイン水族館,ドクターフィッシュとふれあえる体験ができます。ふれあいではないですが、水槽の上から魚にエサをあげたり、スタッフのエピソードを聞きながらバックヤードを案内してくれる探検ガイドツアーという体験もできます。,25,2,東京都豊島区東池袋３丁目１−１ サンシャインシティワールドインポートマートビル屋上,139.7201573,35.7289254,03-3989-3466,月曜日: 9時30分～21時00分. 火曜日: 9時30分～21時00分. 水曜日: 9時30分～21時00分. 木曜日: 9時30分～21時00分. 金曜日: 9時30分～21時00分. 土曜日: 9時30分～21時00分. 日曜日: 9時30分～21時00分,https://sunshinecity.jp/aquarium/,13,6,recommend
はりねずみ屋ぽった (Harinezumiya POTTA),ハリネズミの販売も行っているハリネズミカフェです。,6,6,東京都千代田区飯田橋１丁目１１−４ potta2F,139.7479514,35.69938429999999,070-5369-8103,月曜日: 19時00分～0時00分. 火曜日: 定休日. 水曜日: 定休日. 木曜日: 19時00分～0時00分. 金曜日: 19時00分～0時00分. 土曜日: 14時00分～19時00分. 日曜日: 14時00分～19時00分,https://pottachick.jimdofree.com/,13,7,
うさぎカフェ もふれる,秋葉原にあるウサギカフェです。,3,10,東京都千代田区外神田４丁目８−３ セゾン秋葉原,139.7725434,35.7025967,03-3254-2323,月曜日: 12時00分～20時00分. 火曜日: 12時00分～20時00分. 水曜日: 12時00分～20時00分. 木曜日: 12時00分～20時00分. 金曜日: 12時00分～20時00分. 土曜日: 11時00分～19時00分. 日曜日: 11時00分～19時00分,http://moff-rell.com/ja/,13,8,
保護猫カフェ ネコリパブリック東京 お茶の水店,和室でまったりくつろげる保護猫カフェです,2,4,東京都文京区湯島３丁目１−９ ＣＲＡＮＥビル 4階,139.766883,35.7030548,03-5826-8920,月曜日: 15時00分～20時00分. 火曜日: 15時00分～20時00分. 水曜日: 15時00分～20時00分. 木曜日: 定休日. 金曜日: 15時00分～20時00分. 土曜日: 11時00分～18時00分. 日曜日: 11時00分～18時00分,http://www.neco-republic.jp/,13,9,
鳥のいるカフェ 千駄木店,たくさんの種類の鳥類とふれあえるバードカフェです。タカなどめずらしい鳥ともふれあえます。,"10,27,40","8,12",東京都文京区千駄木３丁目４２−１６,139.764763,35.72756709999999,03-6802-8572,月曜日: 13時00分～20時00分. 火曜日: 13時00分～20時00分. 水曜日: 13時00分～20時00分. 木曜日: 13時00分～20時00分. 金曜日: 13時00分～20時00分. 土曜日: 11時00分～20時00分. 日曜日: 11時00分～20時00分,http://toricafe.co.jp/,13,10,
ANELLA CAFE (保護犬猫シェルター＆ふれあいカフェ)新宿店,保護猫、保護犬とふれあえるカフェです。審査の上、里親になることもできます。,"1,2","4,5",東京都新宿区市谷柳町10-4,139.7262005,35.698968,03-6770-6595,月曜日: 11時00分～18時00分. 火曜日: 11時00分～18時00分. 水曜日: 11時00分～18時00分. 木曜日: 11時00分～18時00分. 金曜日: 11時00分～18時00分. 土曜日: 11時00分～18時00分. 日曜日: 11時00分～18時00分,https://instagram.com/dogrescue_anella?igshid=1n2z27i3o2deh,13,11,recommend
BAKENEKO CAFE 化猫茶屋,動物の殺処分問題をなくしていこうと取り組み、保護猫活動などを行っている保護猫カフェです。,2,4,東京都新宿区大久保３丁目１３−１ 1 棟106号,139.7078031,35.7083465,03-5656-1575,月曜日: 11時00分～20時00分. 火曜日: 定休日. 水曜日: 定休日. 木曜日: 11時00分～20時00分. 金曜日: 11時00分～20時00分. 土曜日: 11時00分～20時00分. 日曜日: 11時00分～20時00分,https://bakeneko-cafe.tokyo/,13,12,
猫カフェモカラウンジ 新宿店,おしゃれな店内の猫カフェです,2,4,東京都新宿区新宿３丁目３１−５ 新宿ペガサス館 6 階,139.7036888,35.690681,03-6709-8863,月曜日: 10時00分～20時00分. 火曜日: 10時00分～20時00分. 水曜日: 10時00分～20時00分. 木曜日: 10時00分～20時00分. 金曜日: 10時00分～20時00分. 土曜日: 10時00分～20時00分. 日曜日: 10時00分～20時00分,http://catmocha.jp/shinjuku/,13,13,recommend
爬虫類カフェ らぷとる,たくさんの種類の爬虫類がいます。個体や状況によってですがふれあうことができるようです,"18,19,20",9,東京都新宿区歌舞伎町２丁目１７−１０ 新宿小沼ビル 202,139.7054774,35.6980002,070-1507-3367,月曜日: 14時00分～21時00分. 火曜日: 14時00分～21時00分. 水曜日: 14時00分～21時00分. 木曜日: 定休日. 金曜日: 14時00分～21時00分. 土曜日: 14時00分～21時00分. 日曜日: 14時00分～21時00分,https://reptiles-cafe.com/,13,14,
cat cafe にゃんこと,新宿にある猫カフェです,2,4,東京都新宿区高田馬場２丁目１４−６,139.706532,35.712725,03-6233-9662,月曜日: 12時00分～21時00分. 火曜日: 12時00分～21時00分. 水曜日: 12時00分～21時00分. 木曜日: 12時00分～21時00分. 金曜日: 12時00分～21時00分. 土曜日: 11時00分～21時00分. 日曜日: 11時00分～21時00分,http://nyankoto.com/,13,15,recommend
猫カフェ きゃらふ,雷門から徒歩3分の場所にある猫カフェです。電源やWi-fiを完備していて、長時間のプランもあるようです。,2,4,東京都台東区雷門２丁目１９−１３ 浅草駅前ビル2F,139.7973026,35.7104071,03-6231-6050,月曜日: 定休日. 火曜日: 11時00分～20時00分. 水曜日: 11時00分～20時00分. 木曜日: 11時00分～20時00分. 金曜日: 11時00分～20時00分. 土曜日: 11時00分～20時00分. 日曜日: 11時00分～18時00分,https://calaugh.com/,13,16,
猫カフェＭＯＮＴＡ,おしゃれな店内の猫カフェです。中でスイーツやパスタなどを食べることができます,2,4,東京都台東区花川戸１丁目５−２ サテライトフジビル 8Ｆ 浅草,139.7979922,35.7120841,03-5830-7428,月曜日: 11時00分～20時00分. 火曜日: 定休日. 水曜日: 11時00分～20時00分. 木曜日: 11時00分～20時00分. 金曜日: 11時00分～20時00分. 土曜日: 11時00分～20時00分. 日曜日: 11時00分～19時00分,http://nekocafe-monta.jp/,13,17,
猫カフェ MOCHA（モカ）秋葉原店,猫カフェMOCHAの秋葉原店です,2,4,東京都千代田区外神田４丁目４−３ 秋葉原SILビル 2階,139.7718157,35.7013098,03-5577-5399,月曜日: 10時00分～20時00分. 火曜日: 10時00分～20時00分. 水曜日: 10時00分～20時00分. 木曜日: 10時00分～20時00分. 金曜日: 10時00分～20時00分. 土曜日: 10時00分～20時00分. 日曜日: 10時00分～20時00分,http://catmocha.jp/akihabara/,13,18,
ハリネズミパラダイス 浅草店,ハリネズミカフェ「ハリネズミパラダイス」の浅草店です,6,6,東京都台東区浅草１丁目２３−７ ３階,139.7934736,35.7123219,03-5811-1752,月曜日: 11時00分～20時00分. 火曜日: 11時00分～20時00分. 水曜日: 11時00分～20時00分. 木曜日: 11時00分～20時00分. 金曜日: 11時00分～20時00分. 土曜日: 11時00分～20時00分. 日曜日: 11時00分～20時00分,http://hari-para.com/,13,19,
もふれる屋カラハリ,フェネックやミーアキャットなどとても珍しい動物とふれあうことができる動物カフェです。ほかにもカワウソや爬虫類もいます,"9,19,40","10,12",東京都台東区浅草３丁目１−１ 馬道妙見屋ビル２階,139.7985155,35.7160357,03-6802-3735,月曜日: 11時00分～20時00分. 火曜日: 11時00分～20時00分. 水曜日: 11時00分～20時00分. 木曜日: 11時00分～20時00分. 金曜日: 11時00分～20時00分. 土曜日: 11時00分～20時00分. 日曜日: 11時00分～20時00分,http://www.moff-kalahari.com/,13,20,
ふくろうカフェ OZ,浅草「花やしき」から徒歩2分の場所にあるフクロウカフェです。コモンマーモセットというサルやモモンガとふれあうこともできます,"3,6,10,40","7,10,12",東京都台東区浅草２丁目１６−５ レジデンシャルスター浅草 102,139.7939871,35.7160143,050-6861-2960,月曜日: 13時00分～19時00分. 火曜日: 13時00分～19時00分. 水曜日: 定休日. 木曜日: 13時00分～19時00分. 金曜日: 13時00分～19時00分. 土曜日: 13時00分～19時00分. 日曜日: 13時00分～19時00分,http://owlcafe.jp/,13,21,recommend
フクロウの巣カフェ,ナマケモノ、フェネック、キンカジューなどかなり珍しい動物とふれあうことができます,"2,3,6,27,40","7,10,12","東京都台東区上野４丁目５−１１ 3階 安富ビル ４丁目-5-11 上野 Building 3F, 台東区",139.7739103,35.70890600000001,03-5817-8133,月曜日: 14時00分～18時00分. 火曜日: 14時00分～18時00分. 水曜日: 14時00分～18時00分. 木曜日: 14時00分～18時00分. 金曜日: 14時00分～18時00分. 土曜日: 13時00分～19時00分. 日曜日: 13時00分～19時00分,https://www.fukurounosucafe.com/,13,22,recommend
浅草プードル,ハリネズミやウサギもいるドッグカフェです,"1,3,6","5,10",東京都台東区浅草１丁目３６−１１,139.7970439,35.7125666,03-5811-1039,月曜日: 13時00分～19時00分. 火曜日: 13時00分～19時00分. 水曜日: 13時00分～19時00分. 木曜日: 13時00分～19時00分. 金曜日: 13時00分～19時00分. 土曜日: 13時00分～19時00分. 日曜日: 13時00分～19時00分,https://asakusa-poodle.com/,13,23,recommend
鳥のいるカフェ 谷中本店,たくさんの種類の鳥とふれあえるバードカフェ「鳥のいるカフェ」の谷中本店です。ハリネズミもいるようです。,"6,10,27",8,東京都台東区谷中２丁目３−１６ STビル 1F,139.7653705,35.720652,03-6721-0220,月曜日: 13時00分～20時00分. 火曜日: 13時00分～20時00分. 水曜日: 定休日. 木曜日: 13時00分～20時00分. 金曜日: 13時00分～20時00分. 土曜日: 13時00分～20時00分. 日曜日: 13時00分～20時00分,http://toricafe.co.jp/roppongi,13,24,
保護猫カフェ浅草ねこ園,浅草駅から徒歩6分の場所にある保護猫カフェです。保護猫の里親を募集しています。,2,4,東京都台東区花川戸２丁目７−６ 池田ビル 3階,139.7986782,35.7152142,03-6231-7944,月曜日: 12時00分～20時00分. 火曜日: 定休日. 水曜日: 12時00分～20時00分. 木曜日: 12時00分～20時00分. 金曜日: 12時00分～20時00分. 土曜日: 12時00分～20時00分. 日曜日: 12時00分～20時00分,http://www.asakusanekoen.com/,13,25,
猫まるカフェ 上野店,食事をしながらくつろぐ事ができる猫カフェです。,2,4,東京都台東区上野７丁目２−２ 東叡堂ビル 8階,139.777323,35.712547,03-5826-2501,月曜日: 定休日. 火曜日: 12時00分～20時00分. 水曜日: 12時00分～20時00分. 木曜日: 12時00分～20時00分. 金曜日: 12時00分～20時00分. 土曜日: 11時00分～20時00分. 日曜日: 11時00分～18時00分,http://nekomarucafe.com/,13,26,
ピッコロ ズー,ミーキャットやフクロモモンガなどかなり珍しい動物もいる動物カフェです。ほかにも九官鳥やフェレットなどたくさんの種類の動物とふれあえます,"2,4,6,7,18,19,40","9,10,12",東京都台東区西浅草1丁目1-16 升宏ビル3階,139.7913274,35.7102776,090-6023-1156,月曜日: 12時00分～20時00分. 火曜日: 12時00分～20時00分. 水曜日: 12時00分～20時00分. 木曜日: 12時00分～20時00分. 金曜日: 定休日. 土曜日: 12時00分～20時00分. 日曜日: 12時00分～20時00分,http://piccolozoo-pet.com/,13,27,
ことりカフェ上野本店,インコやオウムとふれあえる小鳥カフェです,27,8,東京都台東区上野桜木１丁目８−６,139.7697654,35.7200427,03-6427-5115,月曜日: 11時00分～17時00分. 火曜日: 11時00分～17時00分. 水曜日: 11時00分～17時00分. 木曜日: 11時00分～17時00分. 金曜日: 11時00分～17時00分. 土曜日: 11時00分～18時00分. 日曜日: 11時00分～18時00分,http://ueno.kotoricafe.jp/,13,28,recommend
フクロウカフェ 東京 アキバフクロウ,フクロウの販売なども行っている日本で最大級のフクロウカフェです,10,7,東京都千代田区神田練塀町６７,139.774838,35.7007993,03-6206-4095,月曜日: 12時00分～18時00分. 火曜日: 定休日. 水曜日: 12時00分～18時00分. 木曜日: 12時00分～18時00分. 金曜日: 12時00分～18時00分. 土曜日: 12時00分～19時00分. 日曜日: 12時00分～19時00分,https://akiba2960.com/jp/,13,29,
mipig cafe 目黒店,東京でも珍しいマイクロブタとふれあうことができるマイクロブタカフェです,15,10,東京都目黒区目黒４丁目１１−３,139.7035725,35.631358,03-6712-2011,月曜日: 9時00分～20時00分. 火曜日: 9時00分～20時00分. 水曜日: 9時00分～20時00分. 木曜日: 9時00分～20時00分. 金曜日: 9時00分～20時00分. 土曜日: 9時00分～20時00分. 日曜日: 9時00分～20時00分,https://mipig.cafe/,13,30,
保護猫カフェMeooow!,品川にある保護猫カフェです,2,4,東京都品川区荏原１丁目１２−６,139.7152964,35.6200395,070-8322-5630,月曜日: 13時00分～20時00分. 火曜日: 13時00分～20時00分. 水曜日: 定休日. 木曜日: 13時00分～20時00分. 金曜日: 13時00分～20時00分. 土曜日: 13時00分～20時00分. 日曜日: 13時00分～20時00分,http://meooow-cat.com/,13,31,
ちくちくCAFE (Chiku Chiku Cafe),販売も行っているハリネズミカフェです,6,6,"大協渋谷ビル 2f, １丁目-13-5 渋谷 渋谷区 東京都 150-0002 日本",139.703746,35.6599526,03-6450-6673,月曜日: 13時00分～18時00分. 火曜日: 13時00分～18時00分. 水曜日: 13時00分～18時00分. 木曜日: 13時00分～18時00分. 金曜日: 13時00分～18時00分. 土曜日: 13時00分～18時00分. 日曜日: 13時00分～18時00分,https://hedgehoghome.cafe/,13,32,
pignic cafe,渋谷にあるマイクロブタカフェです,15,10,東京都渋谷区富ケ谷１丁目１７−３ 3A TERRACE BLD 2F,139.6923938,35.6664311,03-6407-0200,月曜日: 10時00分～20時00分. 火曜日: 10時00分～20時00分. 水曜日: 10時00分～20時00分. 木曜日: 10時00分～20時00分. 金曜日: 10時00分～20時00分. 土曜日: 10時00分～20時00分. 日曜日: 10時00分～20時00分,https://cafe.pignic.jp/,13,33,
cafe nine,動物カフェではなく愛犬を連れて行けるカフェです。店内にはカフェで飼われているたくさんのわんちゃんがいるようです。,1,5,東京都渋谷区代々木５丁目３８−６,139.6901258,35.6711655,03-6875-0353,月曜日: 12時00分～20時00分. 火曜日: 12時00分～20時00分. 水曜日: 12時00分～20時00分. 木曜日: 12時00分～20時00分. 金曜日: 12時00分～20時00分. 土曜日: 11時00分～21時00分. 日曜日: 11時00分～21時00分,http://nine9cafe.co.jp/,13,34,
Cafe HOOTHOOT,フクロウが放し飼いになっていて、コーヒーやお酒を飲みながらくつろぐことのできるフクロウカフェです,10,7,東京都渋谷区神泉町１０−１６,139.6929113,35.6556593,03-6778-2364,月曜日: 13時00分～23時00分. 火曜日: 13時00分～23時00分. 水曜日: 13時00分～23時00分. 木曜日: 13時00分～23時00分. 金曜日: 13時00分～23時00分. 土曜日: 12時00分～23時00分. 日曜日: 12時00分～23時00分,https://www.cafehoothoot.com/,13,35,
Cafe & Snake - 東京スネークセンター,山手線原宿駅から徒歩5分の場所にあるヘビ専門のカフェです。ヘビを見ながらくつろげるカフェのようですがふれあうこともできるようです,18,9,東京都渋谷区神宮前６丁目５−６ サンポウ綜合ビル 8F,139.7052347,35.6678381,03-6427-9912,月曜日: 11時00分～20時00分. 火曜日: 定休日. 水曜日: 11時00分～20時00分. 木曜日: 11時00分～20時00分. 金曜日: 11時00分～20時00分. 土曜日: 11時00分～20時00分. 日曜日: 11時00分～20時00分,http://snakecenter.jp/,13,36,
ちくちくCAFE (Chiku Chiku Cafe),ハリネズミの販売も行っているハリネズミカフェです,6,6,"大協渋谷ビル 2f, １丁目-13-5 渋谷 渋谷区 東京都 150-0002 日本",139.703746,35.6599526,03-6450-6673,月曜日: 13時00分～18時00分. 火曜日: 13時00分～18時00分. 水曜日: 13時00分～18時00分. 木曜日: 13時00分～18時00分. 金曜日: 13時00分～18時00分. 土曜日: 13時00分～18時00分. 日曜日: 13時00分～18時00分,https://hedgehoghome.cafe/,13,37,
原宿かわいい動物園,フェネックやミーアキャット、フェレットなど珍しい動物とふれあうことができます。,"4,6","10,12",東京都渋谷区神宮前３丁目２１−２２,139.7051399,35.6711199,,月曜日: 12時00分～18時00分. 火曜日: 12時00分～18時00分. 水曜日: 12時00分～18時00分. 木曜日: 12時00分～18時00分. 金曜日: 12時00分～18時00分. 土曜日: 12時00分～18時00分. 日曜日: 12時00分～18時00分,https://www.hisgo.com/j1/sp/Contents/OptionalTour/DetailOptionalTour.aspx?TourCd=TYO1370,13,38,
カワウソカフェ® HARRY 原宿テラス店,ハリネズミカフェ「HARRY」の原宿テラス店です。カワウソやチンチラなどの動物もいてふれあうことができます,"3,6,9","6,10",東京都渋谷区神宮前４丁目２６−５ ４２６ビル 3F,139.7080074,35.66919079999999,03-3404-1212,月曜日: 13時00分～18時00分. 火曜日: 13時00分～18時00分. 水曜日: 13時00分～18時00分. 木曜日: 13時00分～18時00分. 金曜日: 13時00分～18時00分. 土曜日: 11時00分～18時00分. 日曜日: 11時00分～18時00分,https://www.harinezumi-cafe.com/harajukuterrace/,13,39,recommend
ハリネズミカフェ®️ HARRY 原宿店 ハムスターカフェmogumogu,ハリネズミカフェ「HARRY」の原宿店です,6,6,東京都渋谷区神宮前１丁目１３−２１ シャンゼール原宿1号館 原宿２号館 4F,139.7034869,35.6695903,03-3404-1180,月曜日: 12時00分～19時00分. 火曜日: 12時00分～19時00分. 水曜日: 12時00分～19時00分. 木曜日: 12時00分～19時00分. 金曜日: 12時00分～19時00分. 土曜日: 11時00分～19時00分. 日曜日: 11時00分～19時00分,http://harinezumi-cafe.com/,13,40,
猫カフェ MOCHA （モカ）渋谷センター街店,猫カフェ「MOCHA」の系列店です,2,4,東京都渋谷区宇田川町３２−１２ アソルティ渋谷 8F,139.6973796,35.6610485,03-6455-3503,月曜日: 10時00分～20時00分. 火曜日: 10時00分～20時00分. 水曜日: 10時00分～20時00分. 木曜日: 10時00分～20時00分. 金曜日: 10時00分～20時00分. 土曜日: 10時00分～20時00分. 日曜日: 10時00分～20時00分,https://catmocha.jp/shibuya/,13,41,
猫カフェ MOCHA（モカ） ラウンジ渋谷公園通り店,猫カフェ「MOCHA」の系列店です,2,4,東京都渋谷区神南１丁目１６−３ ブル・ヴァール 5F,139.6994954,35.66306590000001,03-6277-5745,月曜日: 10時00分～20時00分. 火曜日: 10時00分～20時00分. 水曜日: 10時00分～20時00分. 木曜日: 10時00分～20時00分. 金曜日: 10時00分～20時00分. 土曜日: 10時00分～20時00分. 日曜日: 10時00分～20時00分,http://catmocha.jp/shibuyakoendori/,13,42,
猫カフェ MOCHA （モカ）渋谷センター街店,猫カフェ「MOCHA」の系列店です,2,4,東京都渋谷区宇田川町３２−１２ アソルティ渋谷 8F,139.6973796,35.6610485,03-6455-3503,月曜日: 10時00分～20時00分. 火曜日: 10時00分～20時00分. 水曜日: 10時00分～20時00分. 木曜日: 10時00分～20時00分. 金曜日: 10時00分～20時00分. 土曜日: 10時00分～20時00分. 日曜日: 10時00分～20時00分,https://catmocha.jp/shibuya/,13,43,
猫カフェ MOCHA（モカ）原宿店,猫カフェ「MOCHA」の系列店です,2,4,東京都渋谷区神宮前１丁目１４−２５ クロスアベニュー原宿 クロスアベニュー原宿 4F,139.7029898,35.67002859999999,03-6447-2665,月曜日: 10時00分～20時00分. 火曜日: 10時00分～20時00分. 水曜日: 10時00分～20時00分. 木曜日: 10時00分～20時00分. 金曜日: 10時00分～20時00分. 土曜日: 10時00分～20時00分. 日曜日: 10時00分～20時00分,http://catmocha.jp/harajuku/,13,44,
ニャフェ・メランジェ,恵比寿にあるWi-fi完備の猫カフェです,2,4,東京都渋谷区恵比寿１丁目７−１３ 麻仁ビル恵比寿 3F,139.7105939,35.64828349999999,03-5449-4024,月曜日: 12時00分～20時00分. 火曜日: 12時00分～20時00分. 水曜日: 12時00分～20時00分. 木曜日: 12時00分～20時00分. 金曜日: 12時00分～20時00分. 土曜日: 12時00分～20時00分. 日曜日: 12時00分～20時00分,http://www.nyafe-melange.com/,13,45,
保護猫カフェCatio,渋谷区にある保護猫カフェです。,2,4,東京都渋谷区富ケ谷１丁目８−５ 3F,139.6906577,35.6688181,03-3469-7886,月曜日: 定休日. 火曜日: 定休日. 水曜日: 14時00分～19時00分. 木曜日: 14時00分～19時00分. 金曜日: 14時00分～19時00分. 土曜日: 14時00分～19時00分. 日曜日: 14時00分～19時00分,https://linktr.ee/hogonekoCatio,13,46,
あうるぱーく フクロウカフェ池袋 Owlcafe,フクロウのほかにもイグアナやハリネズミとふれあうこともできます,"6,10,18,19","7,10",東京都豊島区西池袋３丁目３０−１１ 泰共フラットビル 2F,139.7067368,35.7309832,03-3984-1097,月曜日: 13時00分～18時00分. 火曜日: 13時00分～18時00分. 水曜日: 13時00分～18時00分. 木曜日: 13時00分～18時00分. 金曜日: 13時00分～18時00分. 土曜日: 11時00分～18時00分. 日曜日: 11時00分～18時00分,https://www.owlpark.tokyo/,13,47,
うさぎカフェうさびび,うさぎホテルなども行っているウサギカフェです。,3,10,東京都豊島区池袋２丁目４２−９ 中川ビル 5F,139.7098722,35.7336,03-6914-2557,月曜日: 13時00分～20時00分. 火曜日: 13時00分～20時00分. 水曜日: 定休日. 木曜日: 13時00分～20時00分. 金曜日: 13時00分～20時00分. 土曜日: 11時00分～20時00分. 日曜日: 11時00分～20時00分,https://usabibi.net/,13,48,
午前２時のハリネズミさん,モモンガやチンチラなど珍しい動物とふれあうこともできます。ペットホテルや販売も行っている動物カフェです。,"4,6","6,10,12",東京都豊島区池袋２丁目３５−４ ロイヤルウエスト ２Ｆ,139.706751,35.733272,070-6436-3314,月曜日: 12時00分～18時00分. 火曜日: 12時00分～18時00分. 水曜日: 12時00分～18時00分. 木曜日: 12時00分～18時00分. 金曜日: 12時00分～18時00分. 土曜日: 12時00分～18時00分. 日曜日: 12時00分～18時00分,http://shojisad0.wixsite.com/2amhh,13,49,
うさぎカフェmimi,カワウソとふれあうことができます。現在ウサギは限定での公開となっているようなのでホームページなどをご覧ください,9,10,東京都豊島区東池袋１丁目１３−９ 8F,139.7151411,35.7296685,070-5079-3841,月曜日: 定休日. 火曜日: 定休日. 水曜日: 13時30分～19時30分. 木曜日: 定休日. 金曜日: 定休日. 土曜日: 10時30分～19時30分. 日曜日: 10時30分～19時30分,http://www.usa-mimi.com/,13,50,
アニマルルーム いけもふ,珍しい動物がたくさんいてふれあうことができます。フェネック、キンカジュウ、プレーリードッグ、ミーアキャット、モモンガ、チンチラなどもいます,"3,4,6,7,10,18,20,40","10,12",東京都豊島区東池袋１丁目２９−４ 成田ビル 6F,139.7162416,35.7302463,,月曜日: 14時00分～18時00分. 火曜日: 14時00分～18時00分. 水曜日: 14時00分～18時00分. 木曜日: 14時00分～18時00分. 金曜日: 14時00分～18時00分. 土曜日: 11時30分～19時00分. 日曜日: 11時30分～19時00分,http://www.ikemofu.jp/,13,51,
コツメイト池袋店,カワウソとフクロモモンガとふれあうことができます。たくさんのメディアで取り上げられているお店です。,"9,40","10,12",東京都豊島区東池袋１丁目２９−４ 成田ビル 5階,139.7162408,35.73023249999999,03-6907-2668,月曜日: 11時00分～19時00分. 火曜日: 11時00分～19時00分. 水曜日: 11時00分～19時00分. 木曜日: 11時00分～19時00分. 金曜日: 11時00分～19時00分. 土曜日: 11時00分～19時00分. 日曜日: 11時00分～19時00分,https://ktm-kawaii.com/,13,52,
保護猫カフェ ネコリパブリック池袋店,猫の殺処分０を目指す保護猫カフェです。保護猫活動も行っているようです。,2,4,東京都豊島区西池袋３丁目２７−３ 中根ビル 4F,139.7072107,35.7306274,03-6914-0834,月曜日: 11時00分～22時00分. 火曜日: 11時00分～22時00分. 水曜日: 11時00分～22時00分. 木曜日: 定休日. 金曜日: 11時00分～22時00分. 土曜日: 11時00分～22時00分. 日曜日: 11時00分～22時00分,http://www.neco-republic.jp/,13,53,recommend
猫カフェ MOCHA (モカ)池袋西口店,猫カフェ「MOCHA」の系列店です,2,4,東京都豊島区西池袋１丁目１５−６ 豊島会館３階,139.7094809,35.7305075,03-5927-8828,月曜日: 10時00分～20時00分. 火曜日: 10時00分～20時00分. 水曜日: 10時00分～20時00分. 木曜日: 10時00分～20時00分. 金曜日: 10時00分～20時00分. 土曜日: 10時00分～20時00分. 日曜日: 10時00分～20時00分,http://catmocha.jp/,13,54,
猫カフェモカラウンジ池袋東口店,ビルの中にある猫カフェです。,2,4,東京都豊島区東池袋１丁目２２−５ サンケエビル 4F,139.7155766,35.7295193,03-6914-2699,月曜日: 10時00分～20時00分. 火曜日: 10時00分～20時00分. 水曜日: 10時00分～20時00分. 木曜日: 10時00分～20時00分. 金曜日: 10時00分～20時00分. 土曜日: 10時00分～20時00分. 日曜日: 10時00分～20時00分,http://catmocha.jp/ikebukuro2/,13,55,
わんにゃんリゾートジョイフル 猫カフェ,ペットホテルなどが併設されている猫カフェです。同施設内に犬とふれあえるドッグカフェがあります,2,4,東京都板橋区大山東町３８−６ ＭＤＢビル ２F,139.7077114,35.74952969999999,03-5944-1205,月曜日: 11時00分～20時00分. 火曜日: 11時00分～20時00分. 水曜日: 11時00分～20時00分. 木曜日: 11時00分～20時00分. 金曜日: 11時00分～20時00分. 土曜日: 11時00分～20時00分. 日曜日: 11時00分～20時00分,https://wnr-joyful.com/cafe/,13,56,
わんにゃんリゾートジョイフル 犬カフェ,ペットホテルなどが併設されているドッグカフェです。同施設内に猫とふれあえる猫カフェがあります,1,5,東京都板橋区大山東町３８−６ 2F-C,139.7077073,35.7495667,03-5944-1205,月曜日: 11時00分～20時00分. 火曜日: 11時00分～20時00分. 水曜日: 11時00分～20時00分. 木曜日: 11時00分～20時00分. 金曜日: 11時00分～20時00分. 土曜日: 11時00分～20時00分. 日曜日: 11時00分～20時00分,https://wnr-joyful.com/dog-cafe/,13,57,
CAT'S INN TOKYO,里親募集をしている保護猫カフェです。,2,4,東京都板橋区小豆沢３丁目４−１７,139.696836,35.7781794,03-6312-8391,月曜日: 定休日. 火曜日: 13時00分～19時00分. 水曜日: 13時00分～19時00分. 木曜日: 13時00分～19時00分. 金曜日: 13時00分～19時00分. 土曜日: 13時00分～19時00分. 日曜日: 13時00分～19時00分,http://cats-inn.tokyo/,13,58,
猫カフェもふにゃん,短足ネコ専門という珍しい猫カフェです。東京都練馬区の石神井公園駅南口から2分ほどのところにあります,2,4,東京都練馬区石神井町３丁目２０−２５ サンビレッジ 2F,139.6069533,35.7426394,03-6913-2516,月曜日: 10時00分～20時00分. 火曜日: 10時00分～20時00分. 水曜日: 定休日. 木曜日: 10時00分～20時00分. 金曜日: 10時00分～20時00分. 土曜日: 10時00分～20時00分. 日曜日: 10時00分～20時00分,http://www.mofunyan.com/,13,59,
保護猫カフェCHACHA,里親募集をしている保護猫カフェです,2,4,東京都練馬区練馬１丁目５−７ サンライズビル 地下一階,139.6528814,35.7373172,03-6914-6645,月曜日: 10時00分～20時00分. 火曜日: 10時00分～20時00分. 水曜日: 10時00分～20時00分. 木曜日: 10時00分～20時00分. 金曜日: 10時00分～20時00分. 土曜日: 10時00分～20時00分. 日曜日: 10時00分～20時00分,https://hogonekochacha.com/,13,60,
保護犬カフェ立川店,保護犬とふれあえるカフェです。,1,5,東京都立川市富士見町２丁目１２−７,139.4042592,35.7000367,042-519-3452,月曜日: 12時00分～19時00分. 火曜日: 12時00分～19時00分. 水曜日: 12時00分～19時00分. 木曜日: 12時00分～19時00分. 金曜日: 12時00分～19時00分. 土曜日: 11時00分～19時00分. 日曜日: 11時00分～19時00分,http://twitter.com/hogocafe_tachi,13,62,
猫カフェ MOCHA（モカ）立川店,猫カフェMOCHAの系列店です。,2,4,東京都立川市曙町２丁目１１−２ フロム中武 6階,139.4149687,35.6998615,042-595-8616,月曜日: 10時00分～20時00分. 火曜日: 10時00分～20時00分. 水曜日: 10時00分～20時00分. 木曜日: 10時00分～20時00分. 金曜日: 10時00分～20時00分. 土曜日: 10時00分～20時00分. 日曜日: 10時00分～20時00分,http://catmocha.jp/tachikawa/,13,63,
町田リス園,モルモットとふれあえるほか、リス、ウサギにエサをあげることができます,"3,5,7",1,東京都町田市薬師台１丁目７３３−１,139.4496738,35.5780097,042-734-1001,月曜日: 10時00分～16時00分. 火曜日: 定休日. 水曜日: 10時00分～16時00分. 木曜日: 10時00分～16時00分. 金曜日: 10時00分～16時00分. 土曜日: 10時00分～16時00分. 日曜日: 10時00分～16時00分,http://www.machida-risuen.com/,13,64,
モルモットふれあいコーナー(井の頭自然文化園),モルモットとふれあうことができますが、しばらく休止になっているのでホームページなどをご覧ください,7,1,東京都武蔵野市御殿山１丁目１７−５２,139.5719788,35.70111139999999,,月曜日: 定休日. 火曜日: 9時30分～17時00分. 水曜日: 9時30分～17時00分. 木曜日: 9時30分～17時00分. 金曜日: 9時30分～17時00分. 土曜日: 9時30分～17時00分. 日曜日: 9時30分～17時00分,http://www.tokyo-zoo.net/zoo/ino/,13,65,
多摩動物公園,多摩動物公園内にあるモルモットふれあいコーナーです。しばらく休止していましたが2022年10月からリニューアルし再開するようです,7,1,東京都日野市程久保７丁目１−１,139.4032355,35.6496408,042-591-1611,月曜日: 9時30分～17時00分. 火曜日: 9時30分～17時00分. 水曜日: 定休日. 木曜日: 9時30分～17時00分. 金曜日: 9時30分～17時00分. 土曜日: 9時30分～17時00分. 日曜日: 9時30分～17時00分,https://www.tokyo-zoo.net/topic/topics_detail?kind=news&inst=tama&link_num=27643,13,66,
江戸川区自然動物園,自然動物園内のふれあいコーナーです。長らく休止しているのでホームページをご確認ください,"13,14",1,東京都江戸川区北葛西３丁目２−１,139.8584021,35.6710488,03-3680-0777,月曜日: 定休日. 火曜日: 10時00分～16時30分. 水曜日: 10時00分～16時30分. 木曜日: 10時00分～16時30分. 金曜日: 10時00分～16時30分. 土曜日: 9時30分～16時30分. 日曜日: 9時30分～16時30分,http://edogawa-kankyozaidan.jp/zoo/,13,67,
こども動物園 高島平分園,高島平駅から徒歩5分の小さな動物園です。モルモットやヤギ、ヒツジなど身近な動物とふれあえます。,"7,13,14",1,東京都板橋区高島平８丁目２４−１ 徳丸ヶ原公園内,139.6613223,35.7914461,03-3932-0090,月曜日: 定休日. 火曜日: 10時00分～16時30分. 水曜日: 10時00分～16時30分. 木曜日: 10時00分～16時30分. 金曜日: 10時00分～16時30分. 土曜日: 10時00分～16時30分. 日曜日: 10時00分～16時30分,https://www.city.itabashi.tokyo.jp/bousai/kouen/kouen/doubutsuen/1006625.html,13,68,
ヒノトントンZOO(羽村市動物公園),小さな動物園ですがたくさんの動物がいます。モルモットとふれあうことができたり、ヤギやヒツジにエサをあげる体験ができます,"7,13,14",1,東京都羽村市羽４１２２,139.3288145,35.7673915,042-579-4041,月曜日: 定休日. 火曜日: 9時00分～16時00分. 水曜日: 9時00分～16時00分. 木曜日: 9時00分～16時00分. 金曜日: 9時00分～16時00分. 土曜日: 9時00分～16時00分. 日曜日: 9時00分～16時00分,https://hamurazoo.jp/,13,69,
板橋こども動物園,板橋区役所前駅から徒歩8分の場所にある動物園です。ポニーの乗馬体験ができたり、モルモットとふれあえるコーナーがあります,"7,12",1,東京都板橋区板橋３丁目５０−１ 東板橋公園内,139.7127783,35.7542174,03-3963-8003,月曜日: 定休日. 火曜日: 10時00分～16時30分. 水曜日: 10時00分～16時30分. 木曜日: 10時00分～16時30分. 金曜日: 10時00分～16時30分. 土曜日: 10時00分～16時30分. 日曜日: 10時00分～16時30分,https://www.city.itabashi.tokyo.jp/bousai/kouen/kouen/doubutsuen/1006627.html,13,70,
動物たちが暮らす森 アニミル お台場店,かなりの種類の動物とふれあうことができます。珍しい動物もたくさんいて、時間帯によってふれあえる動物が変わるようです。アヒルやミーアキャット、フェレット、さらにアリクイもいるようです。,"1,2,3,7,8,10,18,40","10,12",東京都港区台場１丁目６−１ デックス東京ビーチシーサイドモール5F,139.7759112,35.6292102,03-6457-1215,月曜日: 12時00分～19時00分. 火曜日: 12時00分～19時00分. 水曜日: 12時00分～19時00分. 木曜日: 定休日. 金曜日: 12時00分～19時00分. 土曜日: 11時00分～19時00分. 日曜日: 11時00分～19時00分,https://animeal.jp/odaiba,13,71,
上千葉砂原公園 ふれあい動物広場,モルモットやヤギとふれあえるほか、ポニー乗馬ができます,"7,12,14",1,東京都葛飾区西亀有１丁目２７−１,139.8410128,35.7578515,03-3690-4460,月曜日: 定休日. 火曜日: 10時00分～15時30分. 水曜日: 10時00分～15時30分. 木曜日: 10時00分～15時30分. 金曜日: 10時00分～15時30分. 土曜日: 10時00分～15時30分. 日曜日: 24 時間営業,https://www.city.katsushika.lg.jp/institution/1000096/1006894.html,13,72,recommend
碑文谷公園 こども動物広場,ふれあいコーナーで動物とふれあうことができます。ポニーの乗馬体験もできます。利用可能時間などはホームページをご確認ください,"1,3,7,12",1,東京都目黒区碑文谷６丁目９−１１,139.6817742,35.6265731,03-5722-9775,月曜日: 6時00分～21時00分. 火曜日: 6時00分～21時00分. 水曜日: 6時00分～21時00分. 木曜日: 6時00分～21時00分. 金曜日: 6時00分～21時00分. 土曜日: 6時00分～21時00分. 日曜日: 6時00分～21時00分,https://www.city.meguro.tokyo.jp/kurashi/sports_koen_yoka/koen/omoshiro/dobutsu_hiroba.html,13,73,
渋谷区立代々木ポニー公園,ポニーの引き馬体験や乗馬、エサやり体験など、ポニーとたくさんふれあえる施設です。,12,1,東京都渋谷区代々木神園町４−１,139.695069,35.6786548,03-3373-9996,月曜日: 定休日. 火曜日: 9時00分～17時00分. 水曜日: 9時00分～17時00分. 木曜日: 9時00分～17時00分. 金曜日: 9時00分～17時00分. 土曜日: 9時00分～17時00分. 日曜日: 9時00分～17時00分,https://www.city.shibuya.tokyo.jp/shisetsu/koen/ponypark.html,13,74,
大島公園 動物園,大島にある動物園です。たくさんの動物がいます。モルモットなどの小動物にふれあえるコーナーがあります,7,1,東京都大島町泉津福重２−２,139.4352522,34.7607596,0499-22-9111,月曜日: 8時30分～17時00分. 火曜日: 8時30分～17時00分. 水曜日: 8時30分～17時00分. 木曜日: 8時30分～17時00分. 金曜日: 8時30分～17時00分. 土曜日: 8時30分～17時00分. 日曜日: 8時30分～17時00分,http://www.soumu.metro.tokyo.jp/11osima/park/www/htdocs/parkindex.html,13,75,
フクロウカフェもふもふ 銀座店(Owlcafe ginza),少人数、時間制でフクロウとふれあえる銀座のフクロウカフェです,10,7,東京都中央区銀座６丁目９−１６,139.7632213,35.6700662,03-6280-6364,月曜日: 12時00分～18時00分. 火曜日: 12時00分～18時00分. 水曜日: 12時00分～18時00分. 木曜日: 12時00分～18時00分. 金曜日: 12時00分～18時00分. 土曜日: 12時00分～18時00分. 日曜日: 12時00分～18時00分,http://mohumohu77.jp/,13,76,
カピねこカフェ吉祥寺,里親募集の保護猫とカピバラにふれあえる珍しい組み合わせの動物カフェです。,"2,8",4,東京都武蔵野市吉祥寺南町１丁目５−１０ PLATANO 2階,139.5789374,35.7025513,0422-26-9388,月曜日: 13時00分～18時30分. 火曜日: 13時00分～18時30分. 水曜日: 13時00分～18時30分. 木曜日: 13時00分～18時30分. 金曜日: 13時00分～18時30分. 土曜日: 11時00分～19時00分. 日曜日: 11時00分～19時00分,https://capyneko.cafe/,13,77,
シマリスカフェ アースのおみせ,シマリス専門の動物カフェです。JR亀戸駅から1分の場所にあります,5,10,東京都江東区亀戸６丁目５７−２２ 平塚ビル 301,139.8285036,35.69692949999999,03-5875-2330,月曜日: 定休日. 火曜日: 定休日. 水曜日: 10時00分～19時00分. 木曜日: 10時00分～19時00分. 金曜日: 10時00分～19時00分. 土曜日: 10時00分～19時00分. 日曜日: 10時00分～19時00分,https://chipmunk-cafe.com/,13,78,recommend
Moff animal Cafeイーアス高尾店,全国で数店舗展開している動物カフェです。ふれあえる動物は店舗によって違うようです。,"2,6,10,20",10,東京都八王子市東浅川町５５０−１,139.2906386,35.6433767,042-673-7680,月曜日: 10時00分～20時00分. 火曜日: 10時00分～20時00分. 水曜日: 10時00分～20時00分. 木曜日: 10時00分～20時00分. 金曜日: 10時00分～20時00分. 土曜日: 10時00分～20時00分. 日曜日: 10時00分～20時00分,https://moff-cafe.jp/shopinfo,13,79,
Moff animal cafe グランベリーパーク店,全国で数店舗展開している動物カフェです。ふれあえる動物は店舗によって違うようです。,2,10,東京都町田市鶴間３丁目４−１ グランベリーパーク 3F,139.4707901,35.50924699999999,042-850-7636,月曜日: 10時00分～20時00分. 火曜日: 10時00分～20時00分. 水曜日: 10時00分～20時00分. 木曜日: 10時00分～20時00分. 金曜日: 10時00分～20時00分. 土曜日: 10時00分～20時00分. 日曜日: 10時00分～20時00分,http://moff-cafe.jp/shopinfo#gb-park,13,80,
ねこCAFE MOFF,ヨドバシカメラ内にある猫カフェです,2,4,東京都千代田区神田花岡町1-1 ヨドバシAkiba1階,139.774548,35.6985781,03-6206-0338,月曜日: 10時00分～20時00分. 火曜日: 10時00分～20時00分. 水曜日: 10時00分～20時00分. 木曜日: 10時00分～20時00分. 金曜日: 10時00分～20時00分. 土曜日: 10時00分～20時00分. 日曜日: 10時00分～20時00分,https://moff-moff.jp/,13,81,
マイクロティーカップカフェ(Micro Tea Cup Cafe),たくさんのわんちゃんとふれあえるドッグカフェです。複数のテレビに出演しているようです。,1,5,東京都千代田区外神田３丁目２−１１ 巴ビル 四階,139.7703056,35.7004039,03-3525-4833,月曜日: 定休日. 火曜日: 11時00分～20時00分. 水曜日: 11時00分～20時00分. 木曜日: 11時00分～20時00分. 金曜日: 11時00分～20時00分. 土曜日: 11時00分～20時00分. 日曜日: 11時00分～20時00分,https://teacup.crayonsite.net/,13,82,recommend
猫のいる休憩室 谷保ねこ,きれいな店内の猫カフェです。,2,4,東京都国立市富士見台１丁目１０−１５,139.4479639,35.6828956,042-848-9431,月曜日: 12時00分～20時00分. 火曜日: 12時00分～20時00分. 水曜日: 12時00分～20時00分. 木曜日: 12時00分～20時00分. 金曜日: 12時00分～20時00分. 土曜日: 10時00分～20時00分. 日曜日: 10時00分～20時00分,http://www.yahoneko.com/,13,83,
ふくろうの里 原宿店,原宿駅から徒歩1分のフクロウカフェです。フクロウに配慮された店内でまったりくつろぐこともできます。,10,7,東京都渋谷区神宮前１丁目２１−１５ 原宿ATMビル4F,139.7035005,35.6722299,03-6455-5081,月曜日: 12時00分～18時00分. 火曜日: 12時00分～18時00分. 水曜日: 12時00分～18時00分. 木曜日: 12時00分～18時00分. 金曜日: 12時00分～18時00分. 土曜日: 12時00分～18時00分. 日曜日: 12時00分～18時00分,https://www.owlvillage.jp/harajuku.html,13,84,recommend
カフェ・ミニヨン(cafe mignon),吉祥寺駅から徒歩3分のウサギカフェです。カフェスペースとウサギとふれあうスペースが分かれていてどちらかの利用でも大丈夫なようです。,3,10,東京都武蔵野市吉祥寺南町１丁目１１−２,139.577664,35.70267,0422-26-7972,月曜日: 13時00分～18時00分. 火曜日: 定休日. 水曜日: 13時00分～18時00分. 木曜日: 13時00分～18時00分. 金曜日: 13時00分～18時00分. 土曜日: 11時30分～18時00分. 日曜日: 11時30分～18時00分,https://www.392mig.com/,13,85,
はちゅカフェ,吉祥寺の中道通りにある爬虫類カフェです。ヘビやイグアナ、カメなどとふれあうことができます。,"18,19,20",9,"東京都武蔵野市吉祥寺本町４丁目６−３ starlight,starbright Bldg. 2F-B",139.5732488,35.7051403,0422-27-6798,月曜日: 12時00分～18時00分. 火曜日: 12時00分～18時00分. 水曜日: 定休日. 木曜日: 12時00分～18時00分. 金曜日: 12時00分～18時00分. 土曜日: 12時00分～19時00分. 日曜日: 12時00分～19時00分,http://turboreptiles.co.jp/,13,86,recommend
ペンギンのいるダイニング,店内に大きな水槽があり、ペンギンを見ながら食事を楽しむことができる飲食店です。1日に数回ペンギンに餌をあげるイベントがあるようです。,22,10,東京都武蔵野市吉祥寺本町１丁目１２−１３ センチュリーホーム吉祥寺ビル B1,139.581121,35.7053605,0422-27-5444,月曜日: 11時00分～27時00分. 火曜日: 11時00分～27時00分. 水曜日: 11時00分～27時00分. 木曜日: 11時00分～27時00分. 金曜日: 11時00分～27時00分. 土曜日: 11時00分～27時00分. 日曜日: 11時00分～27時00分,https://penguinbar.jp/,13,87,
あんじゅとあんじゅーる,小型犬とふれあえるドッグカフェです。４階の「猫とフクロウのカフェ あんじゅ」では猫とフクロウとふれあうことができます。※ドッグカフェとは別料金となっています,"1,2,10","1,2,7",東京都江東区白河３丁目５−５,139.8049649,35.68224529999999,03-6458-5067,月曜日: 12時00分～18時00分. 火曜日: 12時00分～18時00分. 水曜日: 12時00分～18時00分. 木曜日: 12時00分～18時00分. 金曜日: 12時00分～18時00分. 土曜日: 12時00分～18時00分. 日曜日: 12時00分～18時00分,https://www.bizserver1.com/unje_unjour/contents1.html,13,88,
ハリネズミパラダイス 秋葉原店,ハリネズミの他にウサギや猫とふれあうことができます,"2,3,6","6,10",東京都千代田区外神田４丁目４−１０ ２F,139.7718912,35.7010606,03-6271-7930,月曜日: 11時00分～20時00分. 火曜日: 11時00分～20時00分. 水曜日: 11時00分～20時00分. 木曜日: 11時00分～20時00分. 金曜日: 11時00分～20時00分. 土曜日: 10時00分～20時00分. 日曜日: 10時00分～20時00分,http://hari-para.com/,13,89,
温もりカフェ,保護犬とふれあうことができます。落ち着く雰囲気の施設で、Googleの口コミではオーナーさんの人柄の評判がよくおすすめです。,1,5,東京都墨田区向島３丁目２−５ 向島パークハイツ第２ 104号,139.8071673,35.7136978,080-2382-4693,月曜日: 10時00分～19時00分. 火曜日: 定休日. 水曜日: 10時00分～19時00分. 木曜日: 10時00分～19時00分. 金曜日: 10時00分～19時00分. 土曜日: 10時00分～19時00分. 日曜日: 10時00分～19時00分,https://oncafe2019.jimdofree.com/,13,90,
くにたち はたけんぼ,農家、市民、国立市が運営するコミュニティーで、ヒツジやウマとふれあうことができます。他にも農体験や田植え体験などたくさんの行事やイベントを行なっているようです。,"12,13","1,3",東京都国立市谷保６６１,139.444588,35.67698499999999,042-505-7200,ホームページをご覧ください,http://hatakenbo.org/,13,91,recommend
八丈島 ふれあい牧場,ふれあい牧場は、八丈富士の中腹に位置する畜産振興のための牧場です。牛を見ながら八丈島の自然を満喫できます。広い敷地に放牧されているため、牛が近くにいない場合もあります。,11,3,東京都八丈町大賀郷５６２７−１,139.767219,33.1313287,0499-62-1125,月曜日: 9時30分～16時00分. 火曜日: 9時30分～16時00分. 水曜日: 9時30分～16時00分. 木曜日: 9時30分～16時00分. 金曜日: 9時30分～16時00分. 土曜日: 9時30分～16時00分. 日曜日: 9時30分～16時00分,https://www.town.hachijo.tokyo.jp/kakuka/sankan/sankan_fureai.html,13,92,
mipig cafe 原宿店,マイクロブタカフェ「mipig cafe」の原宿店です。原宿駅から徒歩5分の場所にあります。,15,10,東京都渋谷区神宮前１丁目１５−４ Barbizon76,139.7042806,35.6709916,03-6384-5899,月曜日: 10時00分～20時00分. 火曜日: 10時00分～20時00分. 水曜日: 10時00分～20時00分. 木曜日: 10時00分～20時00分. 金曜日: 10時00分～20時00分. 土曜日: 10時00分～20時00分. 日曜日: 10時00分～20時00分,https://mipig.cafe/,13,93,